[{"OBJECT_NAME":"TEVEL2-9","OBJECT_ID":"2025-052AD","EPOCH":"2026-03-09T16:51:18.321696","MEAN_MOTION":15.28633834,"ECCENTRICITY":0.000799,"INCLINATION":97.4057,"RA_OF_ASC_NODE":324.3929,"ARG_OF_PERICENTER":124.2475,"MEAN_ANOMALY":235.9522,"EPHEMERIS_TYPE":0,"CLASSIFICATION_TYPE":"U","NORAD_CAT_ID":63237,"ELEMENT_SET_NO":999,"REV_AT_EPOCH":5481,"BSTAR":0.00067240159,"MEAN_MOTION_DOT":0.00018694,"MEAN_MOTION_DDOT":0},{"OBJECT_NAME":"STARLINK-35796","OBJECT_ID":"2025-265AB","EPOCH":"2026-03-09T23:03:38.767968","MEAN_MOTION":15.27599979,"ECCENTRICITY":0.00010863,"INCLINATION":43.0032,"RA_OF_ASC_NODE":276.5118,"ARG_OF_PERICENTER":274.2351,"MEAN_ANOMALY":85.8377,"EPHEMERIS_TYPE":0,"CLASSIFICATION_TYPE":"U","NORAD_CAT_ID":66541,"ELEMENT_SET_NO":999,"REV_AT_EPOCH":1715,"BSTAR":0.0014177642,"MEAN_MOTION_DOT":0.00038982,"MEAN_MOTION_DDOT":0}]
